STARLINK-5519           
1 57223U 23094F   26157.97824176  .00002069  00000+0  84663-4 0  9999
2 57223  43.0011 249.6520 0001384 255.4393 104.6305 15.27587560160737
STARLINK-5983           
1 57224U 23094G   26152.67986280  .00001654  00000+0  69636-4 0  9999
2 57224  43.0024 276.1364 0001790 274.2308  85.8340 15.27574507159968
STARLINK-6294           
1 57225U 23094H   26152.79535037 -.00007009  00000+0 -24516-3 0  9992
2 57225  43.0033 276.1409 0001577 281.2625  78.8050 15.27612091159974
STARLINK-6350           
1 57226U 23094J   26157.94675349  .00000543  00000+0  29254-4 0  9995
2 57226  43.0014 246.8609 0001003 270.0406  90.0331 15.27580546160763
STARLINK-5996           
1 57227U 23094K   26157.98209322  .00001170  00000+0  52052-4 0  9993
2 57227  43.0021 249.6732 0002023 270.0935  89.9685 15.27582680160737
STARLINK-6230           
1 57228U 23094L   26152.66574013  .00003908  00000+0  15150-3 0  9994
2 57228  43.0046 276.0288 0001687 258.8214 101.2448 15.27571136159966
STARLINK-6233           
1 57229U 23094M   26157.55826701  .00002573  00000+0  10295-3 0  9994
2 57229  43.0031 249.1079 0001529 278.4093  81.6585 15.27599543160707
STARLINK-6250           
1 57230U 23094N   26157.95319599 -.00001016  00000+0 -27407-4 0  9999
2 57230  43.0024 246.9073 0000866 259.0073 101.0681 15.27569574160767
STARLINK-5840           
1 57231U 23094P   26157.94289854 -.00000112  00000+0  54643-5 0  9997
2 57231  43.0019 246.8275 0001344 280.9106  79.1594 15.27577069160763
STARLINK-5872           
1 57232U 23094Q   26157.93775947  .00000613  00000+0  31795-4 0  9997
2 57232  43.0008 246.7842 0001362 280.5053  79.5645 15.27580731161423
STARLINK-5866           
1 57233U 23094R   26157.53902694  .00000127  00000+0  14155-4 0  9996
2 57233  43.0018 248.9624 0001723 273.7689  86.2965 15.27567975160702
STARLINK-6368           
1 57234U 23094S   26157.97102186  .00000152  00000+0  15070-4 0  9998
2 57234  43.0037 246.1781 0001707 279.6439  80.4219 15.27577831160775
STARLINK-6360           
1 57235U 23094T   26157.53514543  .00001747  00000+0  72967-4 0  9994
2 57235  43.0024 248.9329 0001138 130.5254 229.5697 15.27592624160704
STARLINK-6315           
1 57236U 23094U   26157.51347776  .00000248  00000+0  18553-4 0  9991
2 57236  43.0018 238.3352 0001799 275.2205  84.8441 15.27577397160825
STARLINK-6365           
1 57237U 23094V   26156.54537152 -.00000120  00000+0  51825-5 0  9993
2 57237  43.0038 254.4017 0002536 272.1784  87.8778 15.27580351160553
STARLINK-6334           
1 57238U 23094W   26157.52760841  .00000371  00000+0  22991-4 0  9994
2 57238  43.0031 238.4302 0001341 270.4340  89.6358 15.27579671160825
STARLINK-6330           
1 57239U 23094X   26157.97487274  .00001237  00000+0  54481-4 0  9991
2 57239  43.0047 246.2080 0001913 269.4592  90.6041 15.27585192160775
STARLINK-6351           
1 57240U 23094Y   26157.93519439  .00004338  00000+0  16694-3 0  9996
2 57240  43.0037 235.4786 0002052 293.9593  66.1044 15.27609118160896
STARLINK-6349           
1 57241U 23094Z   26157.51733063 -.00000179  00000+0  30122-5 0  9996
2 57241  42.9983 238.3594 0001057 269.9058  90.1673 15.27576230160823
STARLINK-6306           
1 57242U 23094AA  26157.52375688  .00000281  00000+0  19703-4 0  9997
2 57242  42.9993 238.4050 0000473 246.2748 113.8054 15.27579124160829
STARLINK-6346           
1 57243U 23094AB  26157.51989724  .00000290  00000+0  20049-4 0  9994
2 57243  43.0010 238.3783 0001183 274.5814  85.4903 15.27579718160827
STARLINK-5610           
1 57244U 23094AC  26156.94798263  .00000185  00000+0  16239-4 0  9996
2 57244  43.0049 240.9711 0001679 283.5117  76.5548 15.27577690160740
STARLINK-5587           
1 57245U 23094AD  26156.94298602 -.00000040  00000+0  80779-5 0  9991
2 57245  43.0027 241.7815 0000992 279.7115  80.3624 15.27576255160736
STARLINK-5049           
1 57246U 23094AE  26156.95053802  .00000215  00000+0  17364-4 0  9996
2 57246  43.0047 240.9866 0003780 268.8524  91.1895 15.27580009160740
STARLINK-5039           
1 57247U 23094AF  26157.93905537 -.00000109  00000+0  55841-5 0  9993
2 57247  43.0040 235.4996 0001742 276.2154  83.8499 15.27576020160897
STARLINK-5514           
1 57248U 23094AG  26157.94290804  .00001026  00000+0  46807-4 0  9998
2 57248  43.0032 235.5268 0001988 269.6513  90.4111 15.27583186160895
STARLINK-5517           
1 57249U 23094AH  26156.50825509  .00000254  00000+0  18767-4 0  9992
2 57249  43.0041 243.6230 0002255 280.6560  79.4038 15.27577720160676
STARLINK-5488           
1 57250U 23094AJ  26157.50319647  .00000178  00000+0  16002-4 0  9991
2 57250  43.0028 238.2502 0001914 269.2601  90.8032 15.27577001160825
STARLINK-5513           
1 57251U 23094AK  26157.49291965 -.00000086  00000+0  64170-5 0  9991
2 57251  43.0038 238.1722 0001454 267.1259  92.9426 15.27574887160824
STARLINK-5511           
1 57252U 23094AL  26157.93776936  .00000471  00000+0  26659-4 0  9993
2 57252  43.0048 235.4937 0001817 287.8694  72.1959 15.27580790160897
