OBJECT_NAME,OBJECT_ID,EPOCH,MEAN_MOTION,ECCENTRICITY,INCLINATION,RA_OF_ASC_NODE,ARG_OF_PERICENTER,MEAN_ANOMALY,EPHEMERIS_TYPE,CLASSIFICATION_TYPE,NORAD_CAT_ID,ELEMENT_SET_NO,REV_AT_EPOCH,BSTAR,MEAN_MOTION_DOT,MEAN_MOTION_DDOT
STARLINK-5519,2023-094F,2026-06-06T23:28:40.088064,15.27587560,.00013843,43.0011,249.6520,255.4393,104.6305,0,U,57223,999,16073,.84663168E-4,.2069E-4,0
STARLINK-5983,2023-094G,2026-06-01T16:19:00.145920,15.27574507,.00017901,43.0024,276.1364,274.2308,85.8340,0,U,57224,999,15996,.69636429E-4,.1654E-4,0
STARLINK-6294,2023-094H,2026-06-01T19:05:18.271968,15.27612091,.00015775,43.0033,276.1409,281.2625,78.8050,0,U,57225,999,15997,-.24515669E-3,-.7009E-4,0
STARLINK-6350,2023-094J,2026-06-06T22:43:19.501536,15.27580546,.00010036,43.0014,246.8609,270.0406,90.0331,0,U,57226,999,16076,.29253559E-4,.543E-5,0
STARLINK-5996,2023-094K,2026-06-06T23:34:12.854208,15.27582680,.00020239,43.0021,249.6732,270.0935,89.9685,0,U,57227,999,16073,.52051501E-4,.117E-4,0
STARLINK-6230,2023-094L,2026-06-01T15:58:39.947232,15.27571136,.00016873,43.0046,276.0288,258.8214,101.2448,0,U,57228,999,15996,.15150327E-3,.3908E-4,0
STARLINK-6233,2023-094M,2026-06-06T13:23:54.269664,15.27599543,.0001529,43.0031,249.1079,278.4093,81.6585,0,U,57229,999,16070,.10295E-3,.2573E-4,0
STARLINK-6250,2023-094N,2026-06-06T22:52:36.133536,15.27569574,.00008668,43.0024,246.9073,259.0073,101.0681,0,U,57230,999,16076,-.27407453E-4,-.1016E-4,0
STARLINK-5840,2023-094P,2026-06-06T22:37:46.433856,15.27577069,.00013447,43.0019,246.8275,280.9106,79.1594,0,U,57231,999,16076,.5464345E-5,-.112E-5,0
STARLINK-5872,2023-094Q,2026-06-06T22:30:22.418208,15.27580731,.00013624,43.0008,246.7842,280.5053,79.5645,0,U,57232,999,16142,.31794985E-4,.613E-5,0
STARLINK-5866,2023-094R,2026-06-06T12:56:11.927616,15.27567975,.0001723,43.0018,248.9624,273.7689,86.2965,0,U,57233,999,16070,.14155E-4,.127E-5,0
STARLINK-6368,2023-094S,2026-06-06T23:18:16.288704,15.27577831,.00017078,43.0037,246.1781,279.6439,80.4219,0,U,57234,999,16077,.15069979E-4,.152E-5,0
STARLINK-6360,2023-094T,2026-06-06T12:50:36.565152,15.27592624,.0001138,43.0024,248.9329,130.5254,229.5697,0,U,57235,999,16070,.72967E-4,.1747E-4,0
STARLINK-6315,2023-094U,2026-06-06T12:19:24.478464,15.27577397,.00017997,43.0018,238.3352,275.2205,84.8441,0,U,57236,999,16082,.18553049E-4,.248E-5,0
STARLINK-6365,2023-094V,2026-06-05T13:05:20.099328,15.27580351,.00025369,43.0038,254.4017,272.1784,87.8778,0,U,57237,999,16055,.5182501E-5,-.12E-5,0
STARLINK-6334,2023-094W,2026-06-06T12:39:45.366624,15.27579671,.00013419,43.0031,238.4302,270.4340,89.6358,0,U,57238,999,16082,.22990676E-4,.371E-5,0
STARLINK-6330,2023-094X,2026-06-06T23:23:49.004736,15.27585192,.00019139,43.0047,246.2080,269.4592,90.6041,0,U,57239,999,16077,.54480896E-4,.1237E-4,0
STARLINK-6351,2023-094Y,2026-06-06T22:26:40.795296,15.27609118,.00020525,43.0037,235.4786,293.9593,66.1044,0,U,57240,999,16089,.16694086E-3,.4338E-4,0
STARLINK-6349,2023-094Z,2026-06-06T12:24:57.366432,15.27576230,.00010572,42.9983,238.3594,269.9058,90.1673,0,U,57241,999,16082,.301218E-5,-.179E-5,0
STARLINK-6306,2023-094AA,2026-06-06T12:34:12.594432,15.27579124,.00004734,42.9993,238.4050,246.2748,113.8054,0,U,57242,999,16082,.1970317E-4,.281E-5,0
STARLINK-6346,2023-094AB,2026-06-06T12:28:39.121536,15.27579718,.00011838,43.0010,238.3783,274.5814,85.4903,0,U,57243,999,16082,.20048508E-4,.29E-5,0
STARLINK-5610,2023-094AC,2026-06-05T22:45:05.699232,15.27577690,.00016792,43.0049,240.9711,283.5117,76.5548,0,U,57244,999,16074,.1623872E-4,.185E-5,0
STARLINK-5587,2023-094AD,2026-06-05T22:37:53.992128,15.27576255,.00009923,43.0027,241.7815,279.7115,80.3624,0,U,57245,999,16073,.8077944E-5,-.4E-6,0
STARLINK-5049,2023-094AE,2026-06-05T22:48:46.484928,15.27580009,.00037804,43.0047,240.9866,268.8524,91.1895,0,U,57246,999,16074,.17363834E-4,.215E-5,0
STARLINK-5039,2023-094AF,2026-06-06T22:32:14.383968,15.27576020,.00017428,43.0040,235.4996,276.2154,83.8499,0,U,57247,999,16089,.5584103E-5,-.109E-5,0
STARLINK-5514,2023-094AG,2026-06-06T22:37:47.254656,15.27583186,.00019889,43.0032,235.5268,269.6513,90.4111,0,U,57248,999,16089,.4680669E-4,.1026E-4,0
STARLINK-5517,2023-094AH,2026-06-05T12:11:53.239776,15.27577720,.00022553,43.0041,243.6230,280.6560,79.4038,0,U,57249,999,16067,.18766941E-4,.254E-5,0
STARLINK-5488,2023-094AJ,2026-06-06T12:04:36.175008,15.27577001,.00019146,43.0028,238.2502,269.2601,90.8032,0,U,57250,999,16082,.16001521E-4,.178E-5,0
STARLINK-5513,2023-094AK,2026-06-06T11:49:48.257760,15.27574887,.00014548,43.0038,238.1722,267.1259,92.9426,0,U,57251,999,16082,.6416977E-5,-.86E-6,0
STARLINK-5511,2023-094AL,2026-06-06T22:30:23.272704,15.27580790,.00018178,43.0048,235.4937,287.8694,72.1959,0,U,57252,999,16089,.26658701E-4,.471E-5,0
